{"type": "FeatureCollection", "features": [ {"type": "Feature", "properties": {"norad_id": 31078, "name": "FENGYUN 1C DEB", "group": "fengyun-1c-debris", "lat": -56.06062514911409, "lon": -150.18618283816352, "alt_km": 805.4916895062206, "timestamp": "2025-12-08T19:31:49.089267+00:00", "meta": {"OBJECT_NAME": "FENGYUN 1C DEB", "OBJECT_ID": "1999-025BFY", "EPOCH": "2025-12-05T09:39:35.353728", "MEAN_MOTION": 14.22045821, "ECCENTRICITY": 0.01168752, "INCLINATION": 98.8694, "RA_OF_ASC_NODE": 39.8, "ARG_OF_PERICENTER": 169.8882, "MEAN_ANOMALY": 252.0219, "EPHEMERIS_TYPE": 0, "CLASSIFICATION_TYPE": "U", "NORAD_CAT_ID": 31078, "ELEMENT_SET_NO": 999, "REV_AT_EPOCH": 96788, "BSTAR": 0.0010409368, "MEAN_MOTION_DOT": 2.424e-05, "MEAN_MOTION_DDOT": 0}, "tle": {"line1": "1 31078U 99025BFY 25339.40249252  .00002424  00000+0  10409-2 0  9991", "line2": "2 31078  98.8694  39.8000 0116875 169.8882 252.0219 14.22045821967883"}}, "geometry": {"type": "Point", "coordinates": [-150.18618283816352, -56.06062514911409]}}, {"type": "Feature", "properties": {"norad_id": 31081, "name": "FENGYUN 1C DEB", "group": "fengyun-1c-debris", "lat": -52.19334374333214, "lon": 167.8942142356569, "alt_km": 845.153138229749, "timestamp": "2025-12-08T19:31:49.089276+00:00", "meta": {"OBJECT_NAME": "FENGYUN 1C DEB", "OBJECT_ID": "1999-025BGB", "EPOCH": "2025-12-07T19:23:35.652192", "MEAN_MOTION": 14.0629612, "ECCENTRICITY": 0.00472687, "INCLINATION": 98.7706, "RA_OF_ASC_NODE": 358.3971, "ARG_OF_PERICENTER": 245.1033, "MEAN_ANOMALY": 299.2312, "EPHEMERIS_TYPE": 0, "CLASSIFICATION_TYPE": "U", "NORAD_CAT_ID": 31081, "ELEMENT_SET_NO": 999, "REV_AT_EPOCH": 96391, "BSTAR": 0.00020363749, "MEAN_MOTION_DOT": 2.96e-06, "MEAN_MOTION_DDOT": 0}, "tle": {"line1": "1 31081U 99025BGB 25341.80805153  .00000296  00000+0  20364-3 0  9997", "line2": "2 31081  98.7706 358.3971 0047268 245.1033 299.2312 14.06296120963910"}}, "geometry": {"type": "Point", "coordinates": [167.8942142356569, -52.19334374333214]}}, {"type": "Feature", "properties": {"norad_id": 31083, "name": "FENGYUN 1C DEB", "group": "fengyun-1c-debris", "lat": -36.98006501059978, "lon": -86.50057483282528, "alt_km": 697.4259262173982, "timestamp": "2025-12-08T19:31:49.089285+00:00", "meta": {"OBJECT_NAME": "FENGYUN 1C DEB", "OBJECT_ID": "1999-025BGD", "EPOCH": "2025-12-08T07:17:08.574144", "MEAN_MOTION": 14.61844768, "ECCENTRICITY": 0.00309838, "INCLINATION": 98.6466, "RA_OF_ASC_NODE": 99.5457, "ARG_OF_PERICENTER": 319.419, "MEAN_ANOMALY": 94.9135, "EPHEMERIS_TYPE": 0, "CLASSIFICATION_TYPE": "U", "NORAD_CAT_ID": 31083, "ELEMENT_SET_NO": 999, "REV_AT_EPOCH": 97645, "BSTAR": 0.0035151834, "MEAN_MOTION_DOT": 0.00017674, "MEAN_MOTION_DDOT": 0}, "tle": {"line1": "1 31083U 99025BGD 25342.30357146  .00017674  00000+0  35152-2 0  9997", "line2": "2 31083  98.6466  99.5457 0030983 319.4190  94.9135 14.61844768976456"}}, "geometry": {"type": "Point", "coordinates": [-86.50057483282528, -36.98006501059978]}}, {"type": "Feature", "properties": {"norad_id": 31085, "name": "FENGYUN 1C DEB", "group": "fengyun-1c-debris", "lat": 66.83546020402692, "lon": 161.7709073076427, "alt_km": 735.29580809654, "timestamp": "2025-12-08T19:31:49.089294+00:00", "meta": {"OBJECT_NAME": "FENGYUN 1C DEB", "OBJECT_ID": "1999-025BGF", "EPOCH": "2025-12-07T19:48:27.664416", "MEAN_MOTION": 14.30305174, "ECCENTRICITY": 0.00875297, "INCLINATION": 98.9846, "RA_OF_ASC_NODE": 182.4517, "ARG_OF_PERICENTER": 32.2828, "MEAN_ANOMALY": 348.9711, "EPHEMERIS_TYPE": 0, "CLASSIFICATION_TYPE": "U", "NORAD_CAT_ID": 31085, "ELEMENT_SET_NO": 999, "REV_AT_EPOCH": 97646, "BSTAR": 0.00017736691, "MEAN_MOTION_DOT": 4.33e-06, "MEAN_MOTION_DDOT": 0}, "tle": {"line1": "1 31085U 99025BGF 25341.82532019  .00000433  00000+0  17737-3 0  9994", "line2": "2 31085  98.9846 182.4517 0087529  32.2828 348.9711 14.30305174976460"}}, "geometry": {"type": "Point", "coordinates": [161.7709073076427, 66.83546020402692]}}, {"type": "Feature", "properties": {"norad_id": 31087, "name": "FENGYUN 1C DEB", "group": "fengyun-1c-debris", "lat": 37.889920125146254, "lon": -170.3265266490232, "alt_km": 805.0103246082763, "timestamp": "2025-12-08T19:31:49.089317+00:00", "meta": {"OBJECT_NAME": "FENGYUN 1C DEB", "OBJECT_ID": "1999-025BGH", "EPOCH": "2025-12-07T00:15:17.604288", "MEAN_MOTION": 14.60222471, "ECCENTRICITY": 0.01721917, "INCLINATION": 98.1025, "RA_OF_ASC_NODE": 1.5448, "ARG_OF_PERICENTER": 308.9871, "MEAN_ANOMALY": 80, "EPHEMERIS_TYPE": 0, "CLASSIFICATION_TYPE": "U", "NORAD_CAT_ID": 31087, "ELEMENT_SET_NO": 999, "REV_AT_EPOCH": 98686, "BSTAR": 0.0013200911, "MEAN_MOTION_DOT": 7.795e-05, "MEAN_MOTION_DDOT": 0}, "tle": {"line1": "1 31087U 99025BGH 25341.01062042  .00007795  00000+0  13201-2 0  9990", "line2": "2 31087  98.1025   1.5448 0172191 308.9871  80.0000 14.60222471986869"}}, "geometry": {"type": "Point", "coordinates": [-170.3265266490232, 37.889920125146254]}}, {"type": "Feature", "properties": {"norad_id": 31088, "name": "FENGYUN 1C DEB", "group": "fengyun-1c-debris", "lat": 46.95058776378045, "lon": -127.08289861912053, "alt_km": 781.2827907524397, "timestamp": "2025-12-08T19:31:49.089333+00:00", "meta": {"OBJECT_NAME": "FENGYUN 1C DEB", "OBJECT_ID": "1999-025BGJ", "EPOCH": "2025-12-06T03:10:53.544288", "MEAN_MOTION": 14.28618697, "ECCENTRICITY": 0.00290139, "INCLINATION": 99.4119, "RA_OF_ASC_NODE": 39.7992, "ARG_OF_PERICENTER": 80.7204, "MEAN_ANOMALY": 309.1309, "EPHEMERIS_TYPE": 0, "CLASSIFICATION_TYPE": "U", "NORAD_CAT_ID": 31088, "ELEMENT_SET_NO": 999, "REV_AT_EPOCH": 96455, "BSTAR": 0.00281036, "MEAN_MOTION_DOT": 7.045e-05, "MEAN_MOTION_DDOT": 0}, "tle": {"line1": "1 31088U 99025BGJ 25340.13256417  .00007045  00000+0  28104-2 0  9990", "line2": "2 31088  99.4119  39.7992 0029013  80.7204 309.1309 14.28618697964556"}}, "geometry": {"type": "Point", "coordinates": [-127.08289861912053, 46.95058776378045]}}, {"type": "Feature", "properties": {"norad_id": 31089, "name": "FENGYUN 1C DEB", "group": "fengyun-1c-debris", "lat": 73.02206735559459, "lon": 93.9546677863832, "alt_km": 1052.4744688669343, "timestamp": "2025-12-08T19:31:49.089342+00:00", "meta": {"OBJECT_NAME": "FENGYUN 1C DEB", "OBJECT_ID": "1999-025BGK", "EPOCH": "2025-12-07T21:25:32.147616", "MEAN_MOTION": 13.88305057, "ECCENTRICITY": 0.02058957, "INCLINATION": 98.9488, "RA_OF_ASC_NODE": 124.1407, "ARG_OF_PERICENTER": 224.7678, "MEAN_ANOMALY": 291.3696, "EPHEMERIS_TYPE": 0, "CLASSIFICATION_TYPE": "U", "NORAD_CAT_ID": 31089, "ELEMENT_SET_NO": 999, "REV_AT_EPOCH": 67992, "BSTAR": 0.0012224374, "MEAN_MOTION_DOT": 1.69e-05, "MEAN_MOTION_DDOT": 0}, "tle": {"line1": "1 31089U 99025BGK 25341.89273319  .00001690  00000+0  12224-2 0  9991", "line2": "2 31089  98.9488 124.1407 0205895 224.7678 291.3696 13.88305057679922"}}, "geometry": {"type": "Point", "coordinates": [93.9546677863832, 73.02206735559459]}}, {"type": "Feature", "properties": {"norad_id": 31090, "name": "FENGYUN 1C DEB", "group": "fengyun-1c-debris", "lat": -81.00407554034449, "lon": 178.19174079008076, "alt_km": 496.0274484270867, "timestamp": "2025-12-08T19:31:49.089352+00:00", "meta": {"OBJECT_NAME": "FENGYUN 1C DEB", "OBJECT_ID": "1999-025BGL", "EPOCH": "2025-12-08T05:49:34.030272", "MEAN_MOTION": 15.32633337, "ECCENTRICITY": 0.00564213, "INCLINATION": 98.9833, "RA_OF_ASC_NODE": 85.3218, "ARG_OF_PERICENTER": 148.3949, "MEAN_ANOMALY": 212.0697, "EPHEMERIS_TYPE": 0, "CLASSIFICATION_TYPE": "U", "NORAD_CAT_ID": 31090, "ELEMENT_SET_NO": 999, "REV_AT_EPOCH": 769, "BSTAR": 0.0020232243, "MEAN_MOTION_DOT": 0.0006746, "MEAN_MOTION_DDOT": 0}, "tle": {"line1": "1 31090U 99025BGL 25342.24275498  .00067460  00000+0  20232-2 0  9998", "line2": "2 31090  98.9833  85.3218 0056421 148.3949 212.0697 15.32633337  7693"}}, "geometry": {"type": "Point", "coordinates": [178.19174079008076, -81.00407554034449]}}, {"type": "Feature", "properties": {"norad_id": 31091, "name": "FENGYUN 1C DEB", "group": "fengyun-1c-debris", "lat": 80.59562485059877, "lon": -118.70750435304839, "alt_km": 1115.2094418890256, "timestamp": "2025-12-08T19:31:49.089361+00:00", "meta": {"OBJECT_NAME": "FENGYUN 1C DEB", "OBJECT_ID": "1999-025BGM", "EPOCH": "2025-12-08T04:55:13.896480", "MEAN_MOTION": 13.54137581, "ECCENTRICITY": 0.02908791, "INCLINATION": 99.224, "RA_OF_ASC_NODE": 319.5574, "ARG_OF_PERICENTER": 340.5035, "MEAN_ANOMALY": 18.5161, "EPHEMERIS_TYPE": 0, "CLASSIFICATION_TYPE": "U", "NORAD_CAT_ID": 31091, "ELEMENT_SET_NO": 999, "REV_AT_EPOCH": 61578, "BSTAR": 0.0015251289, "MEAN_MOTION_DOT": 1.314e-05, "MEAN_MOTION_DDOT": 0}, "tle": {"line1": "1 31091U 99025BGM 25342.20502195  .00001314  00000+0  15251-2 0  9993", "line2": "2 31091  99.2240 319.5574 0290879 340.5035  18.5161 13.54137581615788"}}, "geometry": {"type": "Point", "coordinates": [-118.70750435304839, 80.59562485059877]}}, {"type": "Feature", "properties": {"norad_id": 31092, "name": "FENGYUN 1C DEB", "group": "fengyun-1c-debris", "lat": -19.902534197096944, "lon": -84.80373056247885, "alt_km": 940.2271806274457, "timestamp": "2025-12-08T19:31:49.089370+00:00", "meta": {"OBJECT_NAME": "FENGYUN 1C DEB", "OBJECT_ID": "1999-025BGN", "EPOCH": "2025-11-15T07:00:52.552224", "MEAN_MOTION": 13.46401433, "ECCENTRICITY": 0.03278725, "INCLINATION": 99.7115, "RA_OF_ASC_NODE": 75.9227, "ARG_OF_PERICENTER": 204.4209, "MEAN_ANOMALY": 154.1084, "EPHEMERIS_TYPE": 0, "CLASSIFICATION_TYPE": "U", "NORAD_CAT_ID": 31092, "ELEMENT_SET_NO": 999, "REV_AT_EPOCH": 91512, "BSTAR": 0.0042000132, "MEAN_MOTION_DOT": 3.457e-05, "MEAN_MOTION_DDOT": 0}, "tle": {"line1": "1 31092U 99025BGN 25319.29227491  .00003457  00000+0  42000-2 0  9992", "line2": "2 31092  99.7115  75.9227 0327872 204.4209 154.1084 13.46401433915121"}}, "geometry": {"type": "Point", "coordinates": [-84.80373056247885, -19.902534197096944]}}]}